#dP2019 12  8  0  0  0.00000000      96 __u+U ITR00 FIT  IAC
## 2083      0.00000000   900.00000000 58825 0.0000000000000
+  105   C06C07C08C09C10C11C12C13C14C16C19C20C21C22C23C24C25
+        C26C27C28C29C30C32C33C34C35C36C37E01E02E03E04E05E07
+        E08E09E11E12E13E14E15E18E19E21E24E25E26E27E30E31E33
+        E36G01G02G03G04G05G06G07G08G09G10G11G12G13G14G15G16
+        G17G18G19G20G21G22G23G24G25G26G27G28G29G30G31G32R01
+        R02R03R05R07R08R09R11R12R13R14R15R16R17R18R19R20R21
+        R22R23R26  0  0  0  0  0  0  0  0  0  0  0  0  0  0
++         8  8  9  8  8  7  8  9  8  8  8  8  8  8  8  7  7
++         7  8  8  8  8  8  8  8  8  8  8  5  5  5  5  4  5
++         4  5  5  4  5  4  4  5  5  5  5  4  5  5  5  5  5
++         4  3  3  3  4  4  3  3  3  4  4  3  4  4  4  3  3
++         3  4  3  4  4  3  4  4  4  3  3  4  4  3  4  4  6
++         5  5  6  6  5  5  5  6  6  5  5  6  5  5  6  6  5
++         5  5  8  0  0  0  0  0  0  0  0  0  0  0  0  0  0
%c M  cc GPS ccc cccc cccc cccc cccc ccccc ccccc ccccc ccccc
%c cc cc ccc ccc cccc cccc cccc cccc ccccc ccccc ccccc ccccc
%f  0.0000000  0.000000000  0.00000000000  0.000000000000000
%f  0.0000000  0.000000000  0.00000000000  0.000000000000000
%i    0    0    0    0      0      0      0      0         0
%i    0    0    0    0      0      0      0      0         0
/* INFORMATION & ANALYSIS CENTER (IAC)      ULTRA-RAPID DATA
/* S/V CLOCKS ARE ALIGNED TO GNSS TIME                      
/* G:C1WC2W R:C1PC2P E:C1XC5X C:C2IC6I J:C1CC2S             
/* PCV:IGS14_2080 OL/AL:FES2004  NONE     YN ORB:CoN CLK:CoN
*  2019 12 08  7  0  0.00000000
PC06 -18646.940386  21622.598084  31243.804628    292.745779
PC07 -20723.921903  37018.468775    328.200144    185.249504
PC08  -5148.194943  28771.092786 -30170.930010    -50.392650
PC09   -676.436026  24691.284347  34405.425429    172.112060
PC10  -8662.631130  38979.903102 -13977.137340   -440.522208
PC11  -7078.125123 -17550.543045  20595.530241    -47.704606
PC12  13374.125372 -10414.301361  22200.642588    303.127601
PC13   6656.342193  37052.816036 -18647.390459    145.256996
PC14   3373.869808 -19973.808769 -19150.430555    355.472696
PC16 -15839.588947  21981.486665  32287.482794   -946.559639
PC19   5977.205705  15367.505612  22530.294736    265.108744
PC20 -11825.883866  21508.918325  13307.387123   -388.877111
PC21  23169.733960 -14982.020843   4129.227298    124.028102
PC22  20616.187048    220.630894  18790.176432   -482.050660
PC23 -16095.075549  -9776.226260  20602.240874   -870.641459
PC24   3513.054431 -25842.657225  -9967.919236   -882.603528
PC25  -9776.351091 -24940.836568   7852.824716   -439.953307
PC26  13226.381932 -12249.442324 -21312.024626    488.663004
PC27 -21292.764442   4299.411815 -17519.524475    238.746182
PC28 -26191.156836  -9474.099973  -1837.841774    229.795865
PC29  16420.932017  17027.075676 -14803.411599    156.729422
PC30  -3644.647806  15561.392246 -22871.922478    236.682181
PC32 -23065.263705  15162.976250  -4113.539591   -857.825033
PC33  -6013.415906 -15389.661793 -22488.857974   -647.100444
PC34   3351.320792 -15709.519305  22819.271581   -294.144789
PC35  26493.160989   8643.450432   1744.849855   -635.335166
PC36   9064.794723  25252.152272  -7651.007534   -880.831077
PC37 -13740.955518  11278.661081  21529.195017   -866.714664
PE01   8887.336964  19218.656445 -20676.228120   -747.915016
PE02  -8932.937991 -19168.189298  20721.780789     97.231774
PE03 -16979.403455 -11352.129938 -21436.953477   -241.499441
PE04  28574.817222  -1890.911507   7485.538086   -420.975939
PE05   4707.041082 -18081.434294 -22964.115203   -424.656562
PE07 -23510.844934  14195.347329  11052.133227   -309.785176
PE08 -28588.351791   2261.307456  -7365.073265   6252.254505
PE09  23362.329443 -14331.166517 -11165.051941   6228.220711
PE11  12770.051497 -10284.938815  24644.272807    275.164512
PE12  23430.113215   8370.729741  16049.900695   6062.062812
PE13 -12826.458313  10110.888421 -24676.568012    396.157170
PE14 -18158.672201 -11959.358473  12005.561951   -822.661214
PE15 -23372.509609  -8076.823575 -16260.727828    885.126076
PE18  12881.310314  19448.122104 -21445.364280   -918.290403
PE19  14915.940105  12356.445689  22379.409077     -2.541456
PE21  -4379.457309  28817.276427  -5144.820344   -570.161796
PE24  15334.564711 -21474.158358 -13440.608414   5727.204389
PE25   4433.053067 -28827.488228   5070.714618   -497.863543
PE26   5216.049841  22588.629134 -18388.542994   3788.459356
PE27 -15202.094519  21515.717861  13497.939618    329.554116
PE30 -17097.122431   1437.482501  24115.657565   4322.815716
PE31  17051.787953  -1629.164002 -24128.586082   -470.833494
PE33  20231.962767  21538.763754  -1679.904722   -471.576535
PE36  -5255.872323 -22398.625575  18635.909972    627.033665
PG01  17456.802037   6315.808488  18915.015105   -222.704454
PG02 -14102.930884 -22538.624022   -692.576711   -362.129797
PG03  18728.981802  -6562.192465  17549.161390    -49.211539
PG04  26144.286365   -916.037078  -4310.651794    -17.955915
PG05  -9166.734324 -13701.058258 -20923.801910     -4.419727
PG06  -4462.831352 -24010.636880  10456.390400   -147.210889
PG07  10962.880188 -11363.024663 -21007.561320   -165.356447
PG08  24815.487538   6089.071498  -7627.889976    -16.003230
PG09  22350.488066  -7840.339954 -12079.928806   -102.809547
PG10 -10434.105776  23628.421609   5710.780181   -164.131017
PG11  22457.299971   4432.803907  12706.046790   -425.630320
PG12 -17303.317203    929.447332  19860.978674    175.471351
PG13 -18754.642204 -12963.947759 -13811.166678    -28.020848
PG14   6047.530459  15597.436048  20993.646082    -46.088616
PG15 -25560.541264  -4038.003038  -7118.120782   -267.208546
PG16   6231.700205  15014.773952 -21100.666162   -100.850773
PG17   6111.079600 -14111.621412  22073.522879    176.907541
PG18  18461.397757  13767.794663  12807.571951    105.284142
PG19  -2146.058317 -14902.282617  21586.529643   -229.258847
PG20 -14712.772835  21299.910027  -5546.267764    527.616890
PG21  -7211.294923  15348.082829 -19706.801140    -74.182801
PG22  16759.910320   1563.957400  20743.910517   -776.380291
PG23  26553.957782  -1301.861755  -2786.615122   -150.884162
PG24 -18933.285945  -7570.322853  17023.788308     -5.923269
PG25 -18701.864639  14925.982825  11019.267500    -17.409693
PG26   -475.669250  21756.519651 -15104.978612    101.033492
PG27  16683.746817  12219.865012 -16957.932530   -143.814282
PG28  11423.500692 -22979.235875   7699.664450    751.643319
PG29 -23300.023782   5105.609235 -11736.470261     24.121937
PG30   2951.959380 -21010.770137 -15827.246086   -101.084613
PG31   5468.876355  24455.541302   8040.773333     -8.362775
PG32  -5020.859631  14924.408214  21433.739031    148.963870
PR01  -5938.673869  -9407.844131 -22960.553283     53.801835
PR02 -21362.553270   4181.531217 -13218.688098    401.409483
PR03 -21302.130717  13440.868099   3892.323405      6.121651
PR05   8240.173409   7789.252760  22852.640674     40.829201
PR07  21170.113365 -13585.349280  -4340.780266    -30.438309
PR08   9217.588414 -14890.021627 -18509.293402     13.939532
PR09  11198.163846   -590.035869 -22893.802099    105.140235
PR11   1569.606485 -25391.365555  -1513.622501     17.391457
PR12  -6187.743974 -20092.541571  14494.193814     86.024611
PR13 -10805.396635  -2601.558605  22945.667037    -31.983792
PR14  -9049.792137  15962.259270  17738.877541     45.846823
PR15  -2086.560039  25303.045762   2461.765314    105.095080
PR16   6807.308421  19628.111050 -14731.862723     -0.320905
PR17 -13720.249967   2854.834399 -21310.256945    282.076263
PR18   2088.101237  13002.025587 -21836.911347     17.226944
PR19  16081.941772  16543.100574 -10864.011901    -67.839911
PR20  21868.704381  10013.845342   8563.569752   -398.275332
PR21  12985.890237  -3400.802590  21688.808198    -90.242984
PR22  -4770.127862 -14090.767420  20696.247410     -4.592955
PR23 -19785.417642 -15310.935180   4991.547726    271.800845
PR26  22192.483621  11577.014978   4842.446181     14.087768
EOF
